line1,line2,validFromUtcTime
1 00000U 00000E   26001.00000000  .00000000  00000-0  27772-4 0    01,2 00000  88.9257 150.3354 0010160 269.4012 120.4735 13.55336957    03,2026-01-01T00:00:00Z
1 00000U 00000E   26002.00000000  .00000000  00000-0  27772-4 0    02,2 00000  88.9257 150.2261 0010160 266.4907 319.6850 13.55336996    02,2026-01-02T00:00:00Z
